[{"OBJECT_NAME":"STARLINK-35197","OBJECT_ID":"2025-243S","EPOCH":"2026-03-09T19:23:46.571424","MEAN_MOTION":15.30206354,"ECCENTRICITY":8.709e-5,"INCLINATION":53.1598,"RA_OF_ASC_NODE":244.5767,"ARG_OF_PERICENTER":96.5902,"MEAN_ANOMALY":263.5198,"EPHEMERIS_TYPE":0,"CLASSIFICATION_TYPE":"U","NORAD_CAT_ID":66193,"ELEMENT_SET_NO":999,"REV_AT_EPOCH":2067,"BSTAR":0.0008338738,"MEAN_MOTION_DOT":0.00024424,"MEAN_MOTION_DDOT":0},{"OBJECT_NAME":"COSMOS 1975","OBJECT_ID":"1988-093A","EPOCH":"2026-03-09T14:15:08.474112","MEAN_MOTION":15.28069249,"ECCENTRICITY":0.0012117,"INCLINATION":82.5181,"RA_OF_ASC_NODE":117.7814,"ARG_OF_PERICENTER":163.8427,"MEAN_ANOMALY":196.3201,"EPHEMERIS_TYPE":0,"CLASSIFICATION_TYPE":"U","NORAD_CAT_ID":19573,"ELEMENT_SET_NO":999,"REV_AT_EPOCH":1939,"BSTAR":0.0002787,"MEAN_MOTION_DOT":7.676e-5,"MEAN_MOTION_DDOT":0}]
